[{"OBJECT_NAME":"STARLINK-3767","OBJECT_ID":"2022-045AX","EPOCH":"2026-02-05T20:00:01.999008","MEAN_MOTION":15.40356555,"ECCENTRICITY":0.0001241,"INCLINATION":53.2181,"RA_OF_ASC_NODE":330.0534,"ARG_OF_PERICENTER":93.9752,"MEAN_ANOMALY":343.9461,"EPHEMERIS_TYPE":0,"CLASSIFICATION_TYPE":"U","NORAD_CAT_ID":52376,"ELEMENT_SET_NO":999,"REV_AT_EPOCH":573,"BSTAR":0.027876,"MEAN_MOTION_DOT":0.0124432,"MEAN_MOTION_DDOT":0},{"OBJECT_NAME":"STARLINK-3805","OBJECT_ID":"2022-045AY","EPOCH":"2026-02-05T18:33:24.416928","MEAN_MOTION":15.08843152,"ECCENTRICITY":0.0001504,"INCLINATION":53.2181,"RA_OF_ASC_NODE":332.6218,"ARG_OF_PERICENTER":92.6364,"MEAN_ANOMALY":267.4801,"EPHEMERIS_TYPE":0,"CLASSIFICATION_TYPE":"U","NORAD_CAT_ID":52377,"ELEMENT_SET_NO":999,"REV_AT_EPOCH":21109,"BSTAR":0.00019477,"MEAN_MOTION_DOT":2.813e-5,"MEAN_MOTION_DDOT":0},{"OBJECT_NAME":"STARLINK-3806","OBJECT_ID":"2022-045AZ","EPOCH":"2026-02-05T05:07:53.577120","MEAN_MOTION":15.08842046,"ECCENTRICITY":0.0001536,"INCLINATION":53.2199,"RA_OF_ASC_NODE":334.9118,"ARG_OF_PERICENTER":80.0694,"MEAN_ANOMALY":280.0471,"EPHEMERIS_TYPE":0,"CLASSIFICATION_TYPE":"U","NORAD_CAT_ID":52378,"ELEMENT_SET_NO":999,"REV_AT_EPOCH":21102,"BSTAR":0.00012786,"MEAN_MOTION_DOT":1.748e-5,"MEAN_MOTION_DDOT":0},{"OBJECT_NAME":"STARLINK-3800","OBJECT_ID":"2022-045BA","EPOCH":"2026-02-05T13:10:06.975840","MEAN_MOTION":15.08841508,"ECCENTRICITY":0.0001295,"INCLINATION":53.2201,"RA_OF_ASC_NODE":333.4102,"ARG_OF_PERICENTER":93.4305,"MEAN_ANOMALY":266.6835,"EPHEMERIS_TYPE":0,"CLASSIFICATION_TYPE":"U","NORAD_CAT_ID":52379,"ELEMENT_SET_NO":999,"REV_AT_EPOCH":21107,"BSTAR":2.3919e-6,"MEAN_MOTION_DOT":-2.5e-6,"MEAN_MOTION_DDOT":0},{"OBJECT_NAME":"STARLINK-3793","OBJECT_ID":"2022-045BB","EPOCH":"2026-02-05T04:42:42.899040","MEAN_MOTION":15.08845795,"ECCENTRICITY":0.0001281,"INCLINATION":53.2196,"RA_OF_ASC_NODE":325.0194,"ARG_OF_PERICENTER":87.6855,"MEAN_ANOMALY":272.4283,"EPHEMERIS_TYPE":0,"CLASSIFICATION_TYPE":"U","NORAD_CAT_ID":52380,"ELEMENT_SET_NO":999,"REV_AT_EPOCH":21115,"BSTAR":6.5059e-5,"MEAN_MOTION_DOT":7.48e-6,"MEAN_MOTION_DDOT":0},{"OBJECT_NAME":"STARLINK-3799","OBJECT_ID":"2022-045BD","EPOCH":"2026-02-05T04:57:18.182880","MEAN_MOTION":15.08852099,"ECCENTRICITY":0.0002452,"INCLINATION":53.218,"RA_OF_ASC_NODE":334.9551,"ARG_OF_PERICENTER":67.4058,"MEAN_ANOMALY":292.7193,"EPHEMERIS_TYPE":0,"CLASSIFICATION_TYPE":"U","NORAD_CAT_ID":52382,"ELEMENT_SET_NO":999,"REV_AT_EPOCH":21102,"BSTAR":0.00020137,"MEAN_MOTION_DOT":2.919e-5,"MEAN_MOTION_DDOT":0},{"OBJECT_NAME":"STARLINK-3811","OBJECT_ID":"2022-045BE","EPOCH":"2026-02-05T11:51:57.119904","MEAN_MOTION":15.08845698,"ECCENTRICITY":0.00013023,"INCLINATION":53.2189,"RA_OF_ASC_NODE":323.6791,"ARG_OF_PERICENTER":77.5791,"MEAN_ANOMALY":282.5347,"EPHEMERIS_TYPE":0,"CLASSIFICATION_TYPE":"U","NORAD_CAT_ID":52383,"ELEMENT_SET_NO":999,"REV_AT_EPOCH":21120,"BSTAR":4.4630319e-5,"MEAN_MOTION_DOT":4.23e-6,"MEAN_MOTION_DDOT":0},{"OBJECT_NAME":"STARLINK-3870","OBJECT_ID":"2022-049A","EPOCH":"2026-02-05T15:38:30.234912","MEAN_MOTION":15.08831535,"ECCENTRICITY":0.0001323,"INCLINATION":53.2175,"RA_OF_ASC_NODE":212.9491,"ARG_OF_PERICENTER":101.2678,"MEAN_ANOMALY":258.8463,"EPHEMERIS_TYPE":0,"CLASSIFICATION_TYPE":"U","NORAD_CAT_ID":52451,"ELEMENT_SET_NO":999,"REV_AT_EPOCH":20727,"BSTAR":-1.7738e-5,"MEAN_MOTION_DOT":-5.7e-6,"MEAN_MOTION_DDOT":0},{"OBJECT_NAME":"STARLINK-3909","OBJECT_ID":"2022-049B","EPOCH":"2026-02-05T17:29:45.642336","MEAN_MOTION":15.08857133,"ECCENTRICITY":0.0001555,"INCLINATION":53.2152,"RA_OF_ASC_NODE":212.4712,"ARG_OF_PERICENTER":91.7972,"MEAN_ANOMALY":268.3199,"EPHEMERIS_TYPE":0,"CLASSIFICATION_TYPE":"U","NORAD_CAT_ID":52452,"ELEMENT_SET_NO":999,"REV_AT_EPOCH":20728,"BSTAR":0.00023905,"MEAN_MOTION_DOT":3.52e-5,"MEAN_MOTION_DDOT":0},{"OBJECT_NAME":"STARLINK-3872","OBJECT_ID":"2022-049C","EPOCH":"2026-02-05T18:38:40.172640","MEAN_MOTION":15.08832928,"ECCENTRICITY":0.0001417,"INCLINATION":53.218,"RA_OF_ASC_NODE":212.3858,"ARG_OF_PERICENTER":72.1882,"MEAN_ANOMALY":287.9265,"EPHEMERIS_TYPE":0,"CLASSIFICATION_TYPE":"U","NORAD_CAT_ID":52453,"ELEMENT_SET_NO":999,"REV_AT_EPOCH":20729,"BSTAR":-8.6792e-6,"MEAN_MOTION_DOT":-4.26e-6,"MEAN_MOTION_DDOT":0},{"OBJECT_NAME":"STARLINK-3888","OBJECT_ID":"2022-049D","EPOCH":"2026-02-05T15:33:11.259072","MEAN_MOTION":15.08842912,"ECCENTRICITY":0.0001268,"INCLINATION":53.218,"RA_OF_ASC_NODE":212.9639,"ARG_OF_PERICENTER":91.844,"MEAN_ANOMALY":268.2697,"EPHEMERIS_TYPE":0,"CLASSIFICATION_TYPE":"U","NORAD_CAT_ID":52454,"ELEMENT_SET_NO":999,"REV_AT_EPOCH":20727,"BSTAR":0.00014734,"MEAN_MOTION_DOT":2.058e-5,"MEAN_MOTION_DDOT":0},{"OBJECT_NAME":"STARLINK-3890","OBJECT_ID":"2022-049E","EPOCH":"2026-02-05T18:34:44.592672","MEAN_MOTION":15.08843578,"ECCENTRICITY":0.0001282,"INCLINATION":53.2174,"RA_OF_ASC_NODE":212.3965,"ARG_OF_PERICENTER":91.64,"MEAN_ANOMALY":268.4739,"EPHEMERIS_TYPE":0,"CLASSIFICATION_TYPE":"U","NORAD_CAT_ID":52455,"ELEMENT_SET_NO":999,"REV_AT_EPOCH":20729,"BSTAR":6.487e-5,"MEAN_MOTION_DOT":7.45e-6,"MEAN_MOTION_DDOT":0},{"OBJECT_NAME":"STARLINK-3896","OBJECT_ID":"2022-049F","EPOCH":"2026-02-05T18:29:26.472192","MEAN_MOTION":15.0884139,"ECCENTRICITY":0.0001051,"INCLINATION":53.2186,"RA_OF_ASC_NODE":212.4157,"ARG_OF_PERICENTER":73.5209,"MEAN_ANOMALY":286.5898,"EPHEMERIS_TYPE":0,"CLASSIFICATION_TYPE":"U","NORAD_CAT_ID":52456,"ELEMENT_SET_NO":999,"REV_AT_EPOCH":20729,"BSTAR":8.501e-5,"MEAN_MOTION_DOT":1.065e-5,"MEAN_MOTION_DDOT":0},{"OBJECT_NAME":"STARLINK-3899","OBJECT_ID":"2022-049G","EPOCH":"2026-02-05T18:22:46.154208","MEAN_MOTION":15.08850684,"ECCENTRICITY":0.0001143,"INCLINATION":53.2164,"RA_OF_ASC_NODE":212.4245,"ARG_OF_PERICENTER":84.3342,"MEAN_ANOMALY":275.7781,"EPHEMERIS_TYPE":0,"CLASSIFICATION_TYPE":"U","NORAD_CAT_ID":52457,"ELEMENT_SET_NO":999,"REV_AT_EPOCH":20729,"BSTAR":2.3107e-5,"MEAN_MOTION_DOT":8.0e-7,"MEAN_MOTION_DDOT":0},{"OBJECT_NAME":"STARLINK-3898","OBJECT_ID":"2022-049H","EPOCH":"2026-02-05T18:18:50.766048","MEAN_MOTION":15.0883987,"ECCENTRICITY":0.0001276,"INCLINATION":53.2172,"RA_OF_ASC_NODE":212.4477,"ARG_OF_PERICENTER":77.4073,"MEAN_ANOMALY":282.7061,"EPHEMERIS_TYPE":0,"CLASSIFICATION_TYPE":"U","NORAD_CAT_ID":52458,"ELEMENT_SET_NO":999,"REV_AT_EPOCH":20729,"BSTAR":4.8706e-5,"MEAN_MOTION_DOT":4.87e-6,"MEAN_MOTION_DDOT":0},{"OBJECT_NAME":"STARLINK-3856","OBJECT_ID":"2022-049J","EPOCH":"2026-02-05T17:57:35.319744","MEAN_MOTION":15.08841451,"ECCENTRICITY":0.0001275,"INCLINATION":53.217,"RA_OF_ASC_NODE":202.5138,"ARG_OF_PERICENTER":89.6708,"MEAN_ANOMALY":270.4431,"EPHEMERIS_TYPE":0,"CLASSIFICATION_TYPE":"U","NORAD_CAT_ID":52459,"ELEMENT_SET_NO":999,"REV_AT_EPOCH":20742,"BSTAR":0.00016396,"MEAN_MOTION_DOT":2.323e-5,"MEAN_MOTION_DDOT":0},{"OBJECT_NAME":"STARLINK-3900","OBJECT_ID":"2022-049L","EPOCH":"2026-02-05T19:28:59.938176","MEAN_MOTION":15.08845761,"ECCENTRICITY":0.0001281,"INCLINATION":53.2177,"RA_OF_ASC_NODE":192.2246,"ARG_OF_PERICENTER":91.6408,"MEAN_ANOMALY":268.4731,"EPHEMERIS_TYPE":0,"CLASSIFICATION_TYPE":"U","NORAD_CAT_ID":52461,"ELEMENT_SET_NO":999,"REV_AT_EPOCH":20757,"BSTAR":0.00013208,"MEAN_MOTION_DOT":1.815e-5,"MEAN_MOTION_DDOT":0}]
