STARLINK-3767           
1 52376U 22045AX  26036.83335647  .01244320  00000+0  27876-1 0  9998
2 52376  53.2181 330.0534 0001241  93.9752 343.9461 15.40356555  5730
STARLINK-3805           
1 52377U 22045AY  26036.77319927  .00002813  00000+0  19477-3 0  9993
2 52377  53.2181 332.6218 0001504  92.6364 267.4801 15.08843152211099
STARLINK-3806           
1 52378U 22045AZ  26036.21381455  .00001748  00000+0  12786-3 0  9990
2 52378  53.2199 334.9118 0001536  80.0694 280.0471 15.08842046211023
STARLINK-3800           
1 52379U 22045BA  26036.54869185 -.00000250  00000+0  23919-5 0  9998
2 52379  53.2201 333.4102 0001295  93.4305 266.6835 15.08841508211075
STARLINK-3793           
1 52380U 22045BB  26036.19632985  .00000748  00000+0  65059-4 0  9998
2 52380  53.2196 325.0194 0001281  87.6855 272.4283 15.08845795211151
STARLINK-3799           
1 52382U 22045BD  26036.20646045  .00002919  00000+0  20137-3 0  9993
2 52382  53.2180 334.9551 0002452  67.4058 292.7193 15.08852099211020
STARLINK-3811           
1 52383U 22045BE  26036.49441111  .00000423  00000+0  44630-4 0  9995
2 52383  53.2189 323.6791 0001302  77.5791 282.5347 15.08845698211205
STARLINK-3870           
1 52451U 22049A   26036.65173883 -.00000570  00000+0 -17738-4 0  9995
2 52451  53.2175 212.9491 0001323 101.2678 258.8463 15.08831535207277
STARLINK-3909           
1 52452U 22049B   26036.72900049  .00003520  00000+0  23905-3 0  9994
2 52452  53.2152 212.4712 0001555  91.7972 268.3199 15.08857133207286
STARLINK-3872           
1 52453U 22049C   26036.77685385 -.00000426  00000+0 -86792-5 0  9992
2 52453  53.2180 212.3858 0001417  72.1882 287.9265 15.08832928207295
STARLINK-3888           
1 52454U 22049D   26036.64804698  .00002058  00000+0  14734-3 0  9995
2 52454  53.2180 212.9639 0001268  91.8440 268.2697 15.08842912207274
STARLINK-3890           
1 52455U 22049E   26036.77412723  .00000745  00000+0  64870-4 0  9992
2 52455  53.2174 212.3965 0001282  91.6400 268.4739 15.08843578207294
STARLINK-3896           
1 52456U 22049F   26036.77044528  .00001065  00000+0  85010-4 0  9992
2 52456  53.2186 212.4157 0001051  73.5209 286.5898 15.08841390207299
STARLINK-3899           
1 52457U 22049G   26036.76581197  .00000080  00000+0  23107-4 0  9995
2 52457  53.2164 212.4245 0001143  84.3342 275.7781 15.08850684207291
STARLINK-3898           
1 52458U 22049H   26036.76308757  .00000487  00000+0  48706-4 0  9998
2 52458  53.2172 212.4477 0001276  77.4073 282.7061 15.08839870207292
STARLINK-3856           
1 52459U 22049J   26036.74832546  .00002323  00000+0  16396-3 0  9995
2 52459  53.2170 202.5138 0001275  89.6708 270.4431 15.08841451207422
STARLINK-3900           
1 52461U 22049L   26036.81180484  .00001815  00000+0  13208-3 0  9997
2 52461  53.2177 192.2246 0001281  91.6408 268.4731 15.08845761207578
